CCSDS_OMM_VERS = 2.0
CREATION_DATE  = 
ORIGINATOR     = 

OBJECT_NAME    = RSP-03
OBJECT_ID      = 1998-067XL
CENTER_NAME    = EARTH
REF_FRAME      = TEME
TIME_SYSTEM    = UTC
MEAN_ELEMENT_THEORY = SGP/SGP4

EPOCH          = 2026-02-05T17:27:13.499712
MEAN_MOTION    = 15.98005384
ECCENTRICITY   = .00062466
INCLINATION    = 51.6175
RA_OF_ASC_NODE = 211.8577
ARG_OF_PERICENTER = 274.4193
MEAN_ANOMALY   = 85.6103

EPHEMERIS_TYPE = 0
CLASSIFICATION_TYPE = U
NORAD_CAT_ID   = 65732
ELEMENT_SET_NO = 999
REV_AT_EPOCH   = 2185
BSTAR          = .16706981E-2
MEAN_MOTION_DOT = .782112E-2
MEAN_MOTION_DDOT = .28519267E-3

CCSDS_OMM_VERS = 2.0
CREATION_DATE  = 
ORIGINATOR     = 

OBJECT_NAME    = YOTSUBA-KULOVER
OBJECT_ID      = 1998-067XN
CENTER_NAME    = EARTH
REF_FRAME      = TEME
TIME_SYSTEM    = UTC
MEAN_ELEMENT_THEORY = SGP/SGP4

EPOCH          = 2026-02-05T17:20:06.198144
MEAN_MOTION    = 15.70112599
ECCENTRICITY   = .00041195
INCLINATION    = 51.6244
RA_OF_ASC_NODE = 221.6848
ARG_OF_PERICENTER = 232.1439
MEAN_ANOMALY   = 127.9186

EPHEMERIS_TYPE = 0
CLASSIFICATION_TYPE = U
NORAD_CAT_ID   = 65941
ELEMENT_SET_NO = 999
REV_AT_EPOCH   = 1846
BSTAR          = .12468237E-2
MEAN_MOTION_DOT = .156224E-2
MEAN_MOTION_DDOT = 0

CCSDS_OMM_VERS = 2.0
CREATION_DATE  = 
ORIGINATOR     = 

OBJECT_NAME    = BOTAN
OBJECT_ID      = 1998-067XP
CENTER_NAME    = EARTH
REF_FRAME      = TEME
TIME_SYSTEM    = UTC
MEAN_ELEMENT_THEORY = SGP/SGP4

EPOCH          = 2026-02-05T16:26:13.322688
MEAN_MOTION    = 15.82518268
ECCENTRICITY   = .00056548
INCLINATION    = 51.6194
RA_OF_ASC_NODE = 218.3956
ARG_OF_PERICENTER = 257.2305
MEAN_ANOMALY   = 102.8066

EPHEMERIS_TYPE = 0
CLASSIFICATION_TYPE = U
NORAD_CAT_ID   = 65942
ELEMENT_SET_NO = 999
REV_AT_EPOCH   = 1850
BSTAR          = .17752203E-2
MEAN_MOTION_DOT = .396212E-2
MEAN_MOTION_DDOT = 0

CCSDS_OMM_VERS = 2.0
CREATION_DATE  = 
ORIGINATOR     = 

OBJECT_NAME    = E-KAGAKU-1
OBJECT_ID      = 1998-067XQ
CENTER_NAME    = EARTH
REF_FRAME      = TEME
TIME_SYSTEM    = UTC
MEAN_ELEMENT_THEORY = SGP/SGP4

EPOCH          = 2026-02-05T17:20:59.048160
MEAN_MOTION    = 15.70022398
ECCENTRICITY   = .00033466
INCLINATION    = 51.6264
RA_OF_ASC_NODE = 221.6998
ARG_OF_PERICENTER = 248.6599
MEAN_ANOMALY   = 111.4041

EPHEMERIS_TYPE = 0
CLASSIFICATION_TYPE = U
NORAD_CAT_ID   = 65943
ELEMENT_SET_NO = 999
REV_AT_EPOCH   = 1846
BSTAR          = .12358991E-2
MEAN_MOTION_DOT = .154212E-2
MEAN_MOTION_DDOT = 0

CCSDS_OMM_VERS = 2.0
CREATION_DATE  = 
ORIGINATOR     = 

OBJECT_NAME    = HRC MONOBLOCK CAMERA
OBJECT_ID      = 1998-067XR
CENTER_NAME    = EARTH
REF_FRAME      = TEME
TIME_SYSTEM    = UTC
MEAN_ELEMENT_THEORY = SGP/SGP4

EPOCH          = 2026-02-05T16:19:31.397664
MEAN_MOTION    = 15.58910866
ECCENTRICITY   = .00005749
INCLINATION    = 51.6282
RA_OF_ASC_NODE = 226.6662
ARG_OF_PERICENTER = 355.2511
MEAN_ANOMALY   = 4.8476

EPHEMERIS_TYPE = 0
CLASSIFICATION_TYPE = U
NORAD_CAT_ID   = 66052
ELEMENT_SET_NO = 999
REV_AT_EPOCH   = 1739
BSTAR          = .78036852E-3
MEAN_MOTION_DOT = .61678E-3
MEAN_MOTION_DDOT = 0

CCSDS_OMM_VERS = 2.0
CREATION_DATE  = 
ORIGINATOR     = 

OBJECT_NAME    = HTV-X1
OBJECT_ID      = 2025-241A
CENTER_NAME    = EARTH
REF_FRAME      = TEME
TIME_SYSTEM    = UTC
MEAN_ELEMENT_THEORY = SGP/SGP4

EPOCH          = 2026-02-05T12:03:05.122368
MEAN_MOTION    = 15.48414003
ECCENTRICITY   = .00111547
INCLINATION    = 51.6316
RA_OF_ASC_NODE = 231.4727
ARG_OF_PERICENTER = 67.3664
MEAN_ANOMALY   = 292.8503

EPHEMERIS_TYPE = 0
CLASSIFICATION_TYPE = U
NORAD_CAT_ID   = 66174
ELEMENT_SET_NO = 999
REV_AT_EPOCH   = 51
BSTAR          = .24571181E-3
MEAN_MOTION_DOT = .1286E-3
MEAN_MOTION_DDOT = 0

CCSDS_OMM_VERS = 2.0
CREATION_DATE  = 
ORIGINATOR     = 

OBJECT_NAME    = SZ-21 MODULE
OBJECT_ID      = 2025-246C
CENTER_NAME    = EARTH
REF_FRAME      = TEME
TIME_SYSTEM    = UTC
MEAN_ELEMENT_THEORY = SGP/SGP4

EPOCH          = 2026-02-05T09:13:51.577536
MEAN_MOTION    = 15.66107693
ECCENTRICITY   = .00030808
INCLINATION    = 41.4761
RA_OF_ASC_NODE = 41.8476
ARG_OF_PERICENTER = 276.8900
MEAN_ANOMALY   = 83.1590

EPHEMERIS_TYPE = 0
CLASSIFICATION_TYPE = U
NORAD_CAT_ID   = 66515
ELEMENT_SET_NO = 999
REV_AT_EPOCH   = 1300
BSTAR          = .42094529E-3
MEAN_MOTION_DOT = .44396E-3
MEAN_MOTION_DDOT = 0

CCSDS_OMM_VERS = 2.0
CREATION_DATE  = 
ORIGINATOR     = 

OBJECT_NAME    = SHENZHOU-22
OBJECT_ID      = 2025-272A
CENTER_NAME    = EARTH
REF_FRAME      = TEME
TIME_SYSTEM    = UTC
MEAN_ELEMENT_THEORY = SGP/SGP4

EPOCH          = 2026-02-05T16:54:58.970880
MEAN_MOTION    = 15.59253081
ECCENTRICITY   = .00055086
INCLINATION    = 41.4677
RA_OF_ASC_NODE = 42.5669
ARG_OF_PERICENTER = 7.6510
MEAN_ANOMALY   = 352.4412

EPHEMERIS_TYPE = 0
CLASSIFICATION_TYPE = U
NORAD_CAT_ID   = 66645
ELEMENT_SET_NO = 999
REV_AT_EPOCH   = 26764
BSTAR          = .41781313E-3
MEAN_MOTION_DOT = .33602E-3
MEAN_MOTION_DDOT = 0

CCSDS_OMM_VERS = 2.0
CREATION_DATE  = 
ORIGINATOR     = 

OBJECT_NAME    = SOYUZ-MS 28
OBJECT_ID      = 2025-275A
CENTER_NAME    = EARTH
REF_FRAME      = TEME
TIME_SYSTEM    = UTC
MEAN_ELEMENT_THEORY = SGP/SGP4

EPOCH          = 2026-02-05T12:03:05.122368
MEAN_MOTION    = 15.48414003
ECCENTRICITY   = .00111547
INCLINATION    = 51.6316
RA_OF_ASC_NODE = 231.4727
ARG_OF_PERICENTER = 67.3664
MEAN_ANOMALY   = 292.8503

EPHEMERIS_TYPE = 0
CLASSIFICATION_TYPE = U
NORAD_CAT_ID   = 66664
ELEMENT_SET_NO = 999
REV_AT_EPOCH   = 128
BSTAR          = .24571181E-3
MEAN_MOTION_DOT = .1286E-3
MEAN_MOTION_DDOT = 0

CCSDS_OMM_VERS = 2.0
CREATION_DATE  = 
ORIGINATOR     = 

OBJECT_NAME    = DUPLEX
OBJECT_ID      = 1998-067XS
CENTER_NAME    = EARTH
REF_FRAME      = TEME
TIME_SYSTEM    = UTC
MEAN_ELEMENT_THEORY = SGP/SGP4

EPOCH          = 2026-02-05T12:27:20.444832
MEAN_MOTION    = 15.53946251
ECCENTRICITY   = .00014452
INCLINATION    = 51.6289
RA_OF_ASC_NODE = 230.0872
ARG_OF_PERICENTER = 84.9208
MEAN_ANOMALY   = 275.1948

EPHEMERIS_TYPE = 0
CLASSIFICATION_TYPE = U
NORAD_CAT_ID   = 66906
ELEMENT_SET_NO = 999
REV_AT_EPOCH   = 1012
BSTAR          = .66289513E-3
MEAN_MOTION_DOT = .43351E-3
MEAN_MOTION_DDOT = 0

CCSDS_OMM_VERS = 2.0
CREATION_DATE  = 
ORIGINATOR     = 

OBJECT_NAME    = 1998-067XT
OBJECT_ID      = 1998-067XT
CENTER_NAME    = EARTH
REF_FRAME      = TEME
TIME_SYSTEM    = UTC
MEAN_ELEMENT_THEORY = SGP/SGP4

EPOCH          = 2026-02-05T12:31:12.212832
MEAN_MOTION    = 15.60907337
ECCENTRICITY   = .00021988
INCLINATION    = 51.6261
RA_OF_ASC_NODE = 228.6046
ARG_OF_PERICENTER = 196.6188
MEAN_ANOMALY   = 163.4734

EPHEMERIS_TYPE = 0
CLASSIFICATION_TYPE = U
NORAD_CAT_ID   = 66907
ELEMENT_SET_NO = 999
REV_AT_EPOCH   = 1014
BSTAR          = .15874789E-2
MEAN_MOTION_DOT = .137299E-2
MEAN_MOTION_DDOT = 0

CCSDS_OMM_VERS = 2.0
CREATION_DATE  = 
ORIGINATOR     = 

OBJECT_NAME    = 1998-067XU
OBJECT_ID      = 1998-067XU
CENTER_NAME    = EARTH
REF_FRAME      = TEME
TIME_SYSTEM    = UTC
MEAN_ELEMENT_THEORY = SGP/SGP4

EPOCH          = 2026-02-05T12:30:27.911232
MEAN_MOTION    = 15.60941820
ECCENTRICITY   = .00020224
INCLINATION    = 51.6263
RA_OF_ASC_NODE = 228.5990
ARG_OF_PERICENTER = 196.4745
MEAN_ANOMALY   = 163.6183

EPHEMERIS_TYPE = 0
CLASSIFICATION_TYPE = U
NORAD_CAT_ID   = 66908
ELEMENT_SET_NO = 999
REV_AT_EPOCH   = 1014
BSTAR          = .15635266E-2
MEAN_MOTION_DOT = .135365E-2
MEAN_MOTION_DDOT = 0

