RSP-03                  
1 65732U 98067XL  26036.72723958  .00782112  28519-3  16707-2 0  9995
2 65732  51.6175 211.8577 0006246 274.4193  85.6103 15.98005384 21851
YOTSUBA-KULOVER         
1 65941U 98067XN  26036.72229396  .00156224  00000+0  12468-2 0  9994
2 65941  51.6244 221.6848 0004119 232.1439 127.9186 15.70112599 18462
BOTAN                   
1 65942U 98067XP  26036.68487642  .00396212  00000+0  17752-2 0  9994
2 65942  51.6194 218.3956 0005654 257.2305 102.8066 15.82518268 18505
E-KAGAKU-1              
1 65943U 98067XQ  26036.72290565  .00154212  00000+0  12359-2 0  9996
2 65943  51.6264 221.6998 0003346 248.6599 111.4041 15.70022398 18467
HRC MONOBLOCK CAMERA    
1 66052U 98067XR  26036.68022451  .00061678  00000+0  78037-3 0  9999
2 66052  51.6282 226.6662 0000574 355.2511   4.8476 15.58910866 17391
HTV-X1                  
1 66174U 25241A   26036.50214262  .00012860  00000+0  24571-3 0  9995
2 66174  51.6316 231.4727 0011154  67.3664 292.8503 15.48414003   513
SZ-21 MODULE            
1 66515U 25246C   26036.38462474  .00044396  00000+0  42095-3 0  9995
2 66515  41.4761  41.8476 0003080 276.8900  83.1590 15.66107693 13005
SHENZHOU-22             
1 66645U 25272A   26036.70484920  .00033602  00000+0  41781-3 0  9993
2 66645  41.4677  42.5669 0005508   7.6510 352.4412 15.59253081267642
SOYUZ-MS 28             
1 66664U 25275A   26036.50214262  .00012860  00000+0  24571-3 0  9996
2 66664  51.6316 231.4727 0011154  67.3664 292.8503 15.48414003  1282
DUPLEX                  
1 66906U 98067XS  26036.51898663  .00043351  00000+0  66290-3 0  9991
2 66906  51.6289 230.0872 0001445  84.9208 275.1948 15.53946251 10128
1998-067XT              
1 66907U 98067XT  26036.52166913  .00137299  00000+0  15875-2 0  9996
2 66907  51.6261 228.6046 0002198 196.6188 163.4734 15.60907337 10143
1998-067XU              
1 66908U 98067XU  26036.52115638  .00135365  00000+0  15635-2 0  9991
2 66908  51.6263 228.5990 0002022 196.4745 163.6183 15.60941820 10141
